{"type":"FeatureCollection", "features": [
{"type":"Feature","geometry":{"type":"MultiPolygon","coordinates":[[[[139.405,42.165],[139.421,42.076],[139.496,42.083],[139.52,42.138],[139.537,42.233],[139.435,42.216],[139.405,42.165]]],[[[139.767,42.312],[139.8,42.229],[139.864,42.219],[139.921,42.133],[140.024,42.115],[140.119,42.004],[140.141,41.914],[140.123,41.825],[140.075,41.808],[140.071,41.767],[140.008,41.691],[139.983,41.608],[139.985,41.563],[140.04,41.451],[140.073,41.429],[140.155,41.425],[140.2,41.398],[140.263,41.483],[140.412,41.522],[140.437,41.548],[140.429,41.603],[140.442,41.681],[140.519,41.702],[140.602,41.743],[140.627,41.809],[140.702,41.815],[140.727,41.791],[140.927,41.738],[140.968,41.71],[141.074,41.742],[141.115,41.788],[141.187,41.809],[141.113,41.872],[140.961,41.915],[140.909,41.983],[140.82,42.036],[140.762,42.114],[140.706,42.138],[140.584,42.108],[140.514,42.129],[140.389,42.221],[140.284,42.256],[140.277,42.321],[140.329,42.442],[140.399,42.532],[140.475,42.589],[140.534,42.589],[140.582,42.567],[140.638,42.585],[140.709,42.583],[140.764,42.547],[140.782,42.505],[140.862,42.466],[140.896,42.427],[140.909,42.377],[140.948,42.317],[140.995,42.301],[141.076,42.382],[141.156,42.44],[141.206,42.453],[141.34,42.537],[141.525,42.612],[141.624,42.63],[141.713,42.628],[141.81,42.612],[141.905,42.577],[142.027,42.485],[142.194,42.448],[142.278,42.376],[142.477,42.274],[142.585,42.243],[142.671,42.192],[142.761,42.174],[142.814,42.142],[142.966,42.118],[143.009,42.083],[143.134,42.028],[143.164,41.983],[143.242,41.927],[143.259,42.004],[143.294,42.043],[143.336,42.202],[143.308,42.244],[143.356,42.366],[143.437,42.481],[143.524,42.573],[143.632,42.67],[143.895,42.86],[144.029,42.933],[144.206,42.993],[144.314,43.002],[144.375,42.968],[144.486,42.939],[144.631,42.951],[144.675,42.939],[144.724,42.974],[144.745,43.023],[144.783,43.055],[144.881,42.985],[144.961,42.98],[145.025,43],[145.032,43.03],[145.086,43.045],[145.112,43.118],[145.147,43.145],[145.201,43.136],[145.289,43.172],[145.425,43.188],[145.529,43.186],[145.557,43.22],[145.568,43.283],[145.61,43.31],[145.759,43.342],[145.808,43.388],[145.652,43.392],[145.623,43.363],[145.522,43.307],[145.493,43.267],[145.396,43.291],[145.326,43.342],[145.263,43.435],[145.245,43.525],[145.222,43.558],[145.221,43.621],[145.146,43.646],[145.069,43.747],[145.061,43.806],[145.099,43.861],[145.094,43.89],[145.155,43.983],[145.245,44.069],[145.264,44.138],[145.329,44.191],[145.362,44.251],[145.344,44.339],[145.225,44.248],[145.191,44.195],[145.042,44.11],[144.915,44.008],[144.796,43.932],[144.662,43.917],[144.535,43.923],[144.367,43.955],[144.3,43.982],[144.22,44.102],[143.913,44.15],[143.789,44.18],[143.629,44.228],[143.411,44.309],[143.355,44.365],[142.994,44.558],[142.933,44.623],[142.739,44.76],[142.633,44.887],[142.586,44.922],[142.578,44.962],[142.532,45.026],[142.419,45.11],[142.285,45.226],[142.166,45.342],[142.042,45.409],[142.019,45.454],[141.937,45.523],[141.879,45.495],[141.857,45.434],[141.796,45.407],[141.707,45.397],[141.657,45.37],[141.574,45.239],[141.586,45.156],[141.672,45.017],[141.732,44.9],[141.775,44.766],[141.791,44.667],[141.787,44.587],[141.767,44.556],[141.761,44.478],[141.737,44.416],[141.678,44.331],[141.647,44.312],[141.658,44.242],[141.653,44.142],[141.662,44.025],[141.634,43.936],[141.557,43.858],[141.387,43.806],[141.329,43.714],[141.351,43.643],[141.386,43.591],[141.36,43.517],[141.427,43.421],[141.424,43.329],[141.308,43.213],[141.162,43.144],[141.002,43.201],[141.009,43.24],[140.918,43.212],[140.797,43.194],[140.777,43.225],[140.641,43.265],[140.63,43.295],[140.575,43.315],[140.503,43.37],[140.43,43.33],[140.36,43.316],[140.325,43.221],[140.359,43.18],[140.43,43.142],[140.466,43.084],[140.529,43.028],[140.519,42.989],[140.417,42.943],[140.347,42.858],[140.309,42.831],[140.304,42.777],[140.238,42.792],[140.185,42.825],[140.13,42.746],[140.069,42.723],[140.04,42.691],[139.925,42.688],[139.869,42.666],[139.822,42.609],[139.852,42.471],[139.829,42.394],[139.78,42.352],[139.767,42.312]]],[[[141.127,45.186],[141.166,45.137],[141.248,45.103],[141.329,45.149],[141.304,45.215],[141.191,45.258],[141.132,45.214],[141.127,45.186]]],[[[145.399,43.829],[145.425,43.783],[145.432,43.722],[145.551,43.731],[145.572,43.778],[145.575,43.841],[145.636,43.9],[145.714,43.911],[145.789,43.949],[145.795,43.988],[145.945,44.153],[146.044,44.189],[146.105,44.259],[146.296,44.276],[146.389,44.359],[146.453,44.377],[146.534,44.38],[146.551,44.427],[146.338,44.417],[146.238,44.457],[146.185,44.506],[146.132,44.509],[146.079,44.471],[146.006,44.38],[146,44.336],[145.966,44.297],[145.889,44.252],[145.855,44.201],[145.788,44.15],[145.743,44.092],[145.736,44.047],[145.594,43.968],[145.59,43.952],[145.463,43.889],[145.399,43.829]]],[[[146.585,43.803],[146.63,43.721],[146.656,43.706],[146.744,43.747],[146.843,43.81],[146.904,43.811],[146.895,43.847],[146.843,43.889],[146.774,43.876],[146.726,43.832],[146.61,43.82],[146.585,43.803]]],[[[146.858,44.453],[146.947,44.426],[146.983,44.445],[147.017,44.506],[147.075,44.556],[147.206,44.571],[147.336,44.715],[147.385,44.746],[147.541,44.814],[147.597,44.854],[147.64,44.914],[147.617,44.961],[147.662,44.998],[147.708,45.007],[147.786,44.948],[147.851,44.965],[147.904,44.961],[147.984,45.004],[148.1,45.113],[148.259,45.185],[148.324,45.222],[148.403,45.233],[148.5,45.272],[148.573,45.317],[148.74,45.338],[148.843,45.337],[148.876,45.396],[148.829,45.428],[148.832,45.46],[148.891,45.488],[148.857,45.54],[148.766,45.555],[148.651,45.537],[148.639,45.509],[148.579,45.49],[148.47,45.4],[148.48,45.386],[148.343,45.291],[148.23,45.265],[148.07,45.259],[148.027,45.273],[147.962,45.415],[147.925,45.438],[147.849,45.363],[147.872,45.296],[147.873,45.229],[147.735,45.194],[147.692,45.133],[147.69,45.095],[147.638,45.075],[147.535,45.106],[147.518,45],[147.453,44.972],[147.383,44.911],[147.263,44.864],[147.245,44.81],[147.205,44.797],[147.133,44.83],[147.1,44.816],[147.126,44.771],[147.195,44.761],[147.186,44.697],[147.13,44.652],[147.033,44.639],[147.026,44.599],[146.978,44.578],[146.876,44.499],[146.858,44.453]]]]},"properties":{"name":"北海道","code":"01"}},
{"type":"Feature","geometry":{"type":"Polygon","coordinates":[[[139.936,40.428],[139.995,40.435],[140.068,40.469],[140.108,40.436],[140.185,40.443],[140.22,40.431],[140.339,40.441],[140.361,40.478],[140.427,40.483],[140.559,40.397],[140.624,40.425],[140.699,40.429],[140.808,40.458],[140.811,40.487],[140.88,40.51],[140.861,40.441],[140.892,40.423],[140.973,40.431],[140.995,40.353],[140.959,40.325],[140.955,40.248],[141.013,40.218],[141.11,40.261],[141.1,40.28],[141.324,40.37],[141.351,40.331],[141.401,40.367],[141.483,40.375],[141.539,40.348],[141.581,40.374],[141.595,40.412],[141.683,40.45],[141.588,40.522],[141.524,40.53],[141.484,40.561],[141.428,40.695],[141.386,40.931],[141.394,41.1],[141.388,41.154],[141.405,41.239],[141.442,41.357],[141.404,41.384],[141.297,41.35],[141.199,41.383],[141.106,41.466],[141.003,41.486],[140.924,41.535],[140.9,41.48],[140.833,41.405],[140.799,41.321],[140.764,41.195],[140.764,41.148],[140.814,41.131],[140.855,41.161],[140.945,41.174],[140.982,41.199],[141.058,41.183],[141.113,41.213],[141.16,41.278],[141.198,41.272],[141.26,41.206],[141.279,41.158],[141.246,41.105],[141.221,40.971],[141.177,40.903],[141.103,40.872],[141.064,40.913],[140.999,40.937],[140.939,40.995],[140.882,41.009],[140.861,40.973],[140.86,40.889],[140.802,40.839],[140.735,40.83],[140.692,40.86],[140.659,40.956],[140.632,41.097],[140.644,41.172],[140.607,41.212],[140.529,41.221],[140.491,41.186],[140.433,41.195],[140.392,41.239],[140.342,41.261],[140.322,41.148],[140.288,41.119],[140.324,41.056],[140.305,40.928],[140.258,40.811],[140.116,40.741],[140.056,40.769],[139.997,40.742],[139.963,40.682],[139.86,40.614],[139.918,40.586],[139.95,40.494],[139.936,40.428]]]},"properties":{"name":"青森県","code":"02"}},
{"type":"Feature","geometry":{"type":"Polygon","coordinates":[[[140.955,40.248],[140.909,40.224],[140.859,40.172],[140.877,40.098],[140.855,40.047],[140.848,39.959],[140.878,39.874],[140.828,39.885],[140.782,39.868],[140.787,39.823],[140.842,39.805],[140.798,39.741],[140.823,39.665],[140.805,39.613],[140.754,39.571],[140.724,39.481],[140.677,39.448],[140.653,39.391],[140.703,39.344],[140.718,39.273],[140.789,39.238],[140.765,39.198],[140.753,39.086],[140.8,39.077],[140.791,39.024],[140.764,39],[140.774,38.958],[140.824,38.964],[140.882,38.928],[140.955,38.91],[140.985,38.875],[141.139,38.877],[141.103,38.831],[141.139,38.791],[141.255,38.76],[141.269,38.793],[141.317,38.823],[141.416,38.78],[141.489,38.907],[141.492,38.999],[141.567,38.996],[141.632,38.971],[141.696,38.971],[141.8,39.024],[141.857,39.105],[141.903,39.205],[141.949,39.228],[141.899,39.259],[141.887,39.302],[141.977,39.319],[141.938,39.384],[142.03,39.416],[142.059,39.47],[142.012,39.48],[142.034,39.574],[142.011,39.647],[141.972,39.701],[141.997,39.778],[141.971,39.885],[141.94,39.92],[141.956,39.984],[141.852,40.055],[141.826,40.101],[141.873,40.144],[141.832,40.179],[141.814,40.274],[141.786,40.311],[141.771,40.346],[141.683,40.45],[141.595,40.412],[141.581,40.374],[141.539,40.348],[141.483,40.375],[141.401,40.367],[141.351,40.331],[141.324,40.37],[141.1,40.28],[141.11,40.261],[141.013,40.218],[140.955,40.248]]]},"properties":{"name":"岩手県","code":"03"}},
{"type":"Feature","geometry":{"type":"Polygon","coordinates":[[[140.774,38.958],[140.64,38.884],[140.547,38.889],[140.591,38.836],[140.604,38.784],[140.636,38.762],[140.607,38.703],[140.624,38.688],[140.569,38.594],[140.556,38.53],[140.598,38.487],[140.563,38.377],[140.531,38.325],[140.473,38.272],[140.48,38.182],[140.375,38.057],[140.289,38.059],[140.28,37.977],[140.317,37.958],[140.462,37.953],[140.488,37.9],[140.619,37.913],[140.69,37.888],[140.684,37.831],[140.727,37.781],[140.852,37.795],[140.856,37.891],[140.931,37.896],[140.915,37.966],[140.925,38.072],[140.967,38.19],[141.03,38.276],[141.062,38.369],[141.088,38.382],[141.175,38.376],[141.258,38.408],[141.357,38.414],[141.41,38.4],[141.43,38.365],[141.526,38.296],[141.541,38.315],[141.513,38.394],[141.474,38.441],[141.499,38.511],[141.459,38.578],[141.525,38.611],[141.53,38.637],[141.441,38.646],[141.541,38.739],[141.513,38.767],[141.593,38.833],[141.605,38.88],[141.651,38.917],[141.632,38.971],[141.567,38.996],[141.492,38.999],[141.489,38.907],[141.416,38.78],[141.317,38.823],[141.269,38.793],[141.255,38.76],[141.139,38.791],[141.103,38.831],[141.139,38.877],[140.985,38.875],[140.955,38.91],[140.882,38.928],[140.824,38.964],[140.774,38.958]]]},"properties":{"name":"宮城県","code":"04"}},
{"type":"Feature","geometry":{"type":"Polygon","coordinates":[[[139.936,40.428],[140.013,40.372],[140.024,40.315],[139.992,40.175],[139.967,40.113],[139.91,40.025],[139.873,39.989],[139.809,39.958],[139.695,39.979],[139.705,39.929],[139.743,39.868],[139.818,39.858],[139.866,39.898],[139.95,39.89],[140.004,39.849],[140.049,39.774],[140.063,39.654],[140.045,39.499],[140.005,39.36],[139.966,39.295],[139.929,39.288],[139.893,39.204],[139.905,39.181],[139.87,39.118],[139.948,39.117],[140.062,39.134],[140.074,39.087],[140.202,39.035],[140.261,39.035],[140.375,38.996],[140.432,38.992],[140.462,38.92],[140.547,38.889],[140.64,38.884],[140.774,38.958],[140.764,39],[140.791,39.024],[140.8,39.077],[140.753,39.086],[140.765,39.198],[140.789,39.238],[140.718,39.273],[140.703,39.344],[140.653,39.391],[140.677,39.448],[140.724,39.481],[140.754,39.571],[140.805,39.613],[140.823,39.665],[140.798,39.741],[140.842,39.805],[140.787,39.823],[140.782,39.868],[140.828,39.885],[140.878,39.874],[140.848,39.959],[140.855,40.047],[140.877,40.098],[140.859,40.172],[140.909,40.224],[140.955,40.248],[140.959,40.325],[140.995,40.353],[140.973,40.431],[140.892,40.423],[140.861,40.441],[140.88,40.51],[140.811,40.487],[140.808,40.458],[140.699,40.429],[140.624,40.425],[140.559,40.397],[140.427,40.483],[140.361,40.478],[140.339,40.441],[140.22,40.431],[140.185,40.443],[140.108,40.436],[140.068,40.469],[139.995,40.435],[139.936,40.428]]]},"properties":{"name":"秋田県","code":"05"}},
{"type":"Feature","geometry":{"type":"Polygon","coordinates":[[[140.547,38.889],[140.462,38.92],[140.432,38.992],[140.375,38.996],[140.261,39.035],[140.202,39.035],[140.074,39.087],[140.062,39.134],[139.948,39.117],[139.87,39.118],[139.879,39.097],[139.84,38.985],[139.814,38.95],[139.793,38.871],[139.746,38.775],[139.698,38.73],[139.615,38.674],[139.548,38.553],[139.599,38.522],[139.722,38.496],[139.712,38.472],[139.733,38.371],[139.849,38.343],[139.899,38.293],[139.86,38.231],[139.786,38.192],[139.713,38.207],[139.682,38.17],[139.692,38.113],[139.639,37.984],[139.638,37.88],[139.681,37.847],[139.687,37.847],[139.69,37.847],[139.693,37.848],[139.694,37.848],[139.696,37.849],[139.716,37.854],[139.716,37.847],[139.724,37.837],[139.727,37.835],[139.727,37.834],[139.732,37.831],[139.783,37.832],[139.813,37.804],[139.93,37.822],[139.987,37.76],[140.048,37.779],[140.128,37.734],[140.162,37.757],[140.237,37.746],[140.282,37.798],[140.262,37.834],[140.28,37.977],[140.289,38.059],[140.375,38.057],[140.48,38.182],[140.473,38.272],[140.531,38.325],[140.563,38.377],[140.598,38.487],[140.556,38.53],[140.569,38.594],[140.624,38.688],[140.607,38.703],[140.636,38.762],[140.604,38.784],[140.591,38.836],[140.547,38.889]]]},"properties":{"name":"山形県","code":"06"}},
{"type":"Feature","geometry":{"type":"MultiPolygon","coordinates":[[[[140.28,37.977],[140.262,37.834],[140.282,37.798],[140.237,37.746],[140.162,37.757],[140.128,37.734],[140.048,37.779],[139.987,37.76],[139.93,37.822],[139.813,37.804],[139.783,37.832],[139.732,37.831],[139.727,37.834],[139.729,37.831],[139.658,37.755],[139.624,37.695],[139.568,37.653],[139.549,37.61],[139.572,37.57],[139.567,37.502],[139.457,37.518],[139.414,37.51],[139.406,37.466],[139.223,37.449],[139.232,37.387],[139.213,37.288],[139.166,37.232],[139.218,37.209],[139.253,37.161],[139.235,37.112],[139.257,37.056],[139.232,36.941],[139.393,36.911],[139.457,36.954],[139.611,37.014],[139.711,37.068],[139.82,37.088],[139.832,37.134],[139.895,37.153],[139.963,37.148],[140.1,37.124],[140.195,37.063],[140.199,37.028],[140.24,37],[140.264,36.933],[140.324,36.893],[140.365,36.884],[140.377,36.838],[140.479,36.797],[140.538,36.859],[140.593,36.88],[140.565,36.915],[140.695,36.889],[140.793,36.859],[140.801,36.894],[140.885,36.938],[140.926,36.941],[140.983,36.996],[140.973,37.023],[141,37.112],[140.999,37.172],[141.037,37.364],[141.042,37.484],[141.031,37.529],[141.022,37.664],[140.986,37.824],[140.96,37.833],[140.931,37.896],[140.856,37.891],[140.852,37.795],[140.727,37.781],[140.684,37.831],[140.69,37.888],[140.619,37.913],[140.488,37.9],[140.462,37.953],[140.317,37.958],[140.28,37.977]]],[[[139.716,37.847],[139.716,37.846],[139.721,37.84],[139.724,37.837],[139.716,37.847]]],[[[139.694,37.848],[139.698,37.848],[139.715,37.853],[139.716,37.847],[139.716,37.854],[139.696,37.849],[139.694,37.848]]],[[[139.681,37.847],[139.688,37.846],[139.69,37.847],[139.687,37.847],[139.681,37.847]]]]},"properties":{"name":"福島県","code":"07"}},
{"type":"Feature","geometry":{"type":"Polygon","coordinates":[[[140.264,36.933],[140.252,36.852],[140.266,36.829],[140.262,36.748],[140.282,36.708],[140.22,36.687],[140.248,36.611],[140.249,36.508],[140.203,36.454],[140.185,36.398],[140.141,36.412],[140.067,36.404],[140.048,36.376],[140,36.377],[139.85,36.312],[139.822,36.24],[139.688,36.2],[139.728,36.09],[139.776,36.091],[139.858,36.029],[139.884,35.989],[139.934,35.968],[139.939,35.941],[140.074,35.877],[140.127,35.871],[140.157,35.843],[140.281,35.874],[140.323,35.866],[140.364,35.899],[140.487,35.925],[140.511,35.959],[140.608,35.896],[140.631,35.859],[140.707,35.836],[140.742,35.785],[140.815,35.742],[140.852,35.745],[140.825,35.76],[140.707,35.925],[140.658,35.992],[140.598,36.109],[140.563,36.224],[140.561,36.292],[140.621,36.36],[140.611,36.475],[140.653,36.573],[140.697,36.649],[140.747,36.78],[140.793,36.859],[140.695,36.889],[140.565,36.915],[140.593,36.88],[140.538,36.859],[140.479,36.797],[140.377,36.838],[140.365,36.884],[140.324,36.893],[140.264,36.933]]]},"properties":{"name":"茨城県","code":"08"}},
{"type":"Feature","geometry":{"type":"Polygon","coordinates":[[[139.393,36.911],[139.353,36.849],[139.407,36.827],[139.351,36.763],[139.368,36.741],[139.337,36.692],[139.33,36.628],[139.483,36.583],[139.418,36.495],[139.412,36.451],[139.361,36.384],[139.418,36.337],[139.427,36.304],[139.481,36.271],[139.549,36.281],[139.631,36.255],[139.664,36.207],[139.688,36.2],[139.822,36.24],[139.85,36.312],[140,36.377],[140.048,36.376],[140.067,36.404],[140.141,36.412],[140.185,36.398],[140.203,36.454],[140.249,36.508],[140.248,36.611],[140.22,36.687],[140.282,36.708],[140.262,36.748],[140.266,36.829],[140.252,36.852],[140.264,36.933],[140.24,37],[140.199,37.028],[140.195,37.063],[140.1,37.124],[139.963,37.148],[139.895,37.153],[139.832,37.134],[139.82,37.088],[139.711,37.068],[139.611,37.014],[139.457,36.954],[139.393,36.911]]]},"properties":{"name":"栃木県","code":"09"}},
{"type":"Feature","geometry":{"type":"Polygon","coordinates":[[[139.232,36.941],[139.18,36.965],[139.179,36.991],[139.097,37.059],[139.091,37.02],[139.03,36.984],[138.97,36.981],[138.979,36.891],[138.932,36.894],[138.929,36.833],[138.88,36.825],[138.789,36.745],[138.727,36.764],[138.696,36.739],[138.544,36.704],[138.525,36.651],[138.458,36.634],[138.429,36.598],[138.404,36.522],[138.401,36.435],[138.507,36.414],[138.608,36.423],[138.648,36.407],[138.653,36.303],[138.613,36.286],[138.602,36.249],[138.635,36.206],[138.631,36.028],[138.713,35.985],[138.769,36.039],[138.828,36.037],[138.846,36.067],[138.931,36.088],[139.061,36.152],[139.063,36.196],[139.127,36.279],[139.164,36.279],[139.237,36.246],[139.32,36.236],[139.358,36.253],[139.454,36.191],[139.535,36.193],[139.594,36.209],[139.664,36.207],[139.631,36.255],[139.549,36.281],[139.481,36.271],[139.427,36.304],[139.418,36.337],[139.361,36.384],[139.412,36.451],[139.418,36.495],[139.483,36.583],[139.33,36.628],[139.337,36.692],[139.368,36.741],[139.351,36.763],[139.407,36.827],[139.353,36.849],[139.393,36.911],[139.232,36.941]]]},"properties":{"name":"群馬県","code":"10"}},
{"type":"Feature","geometry":{"type":"Polygon","coordinates":[[[139.688,36.2],[139.664,36.207],[139.594,36.209],[139.535,36.193],[139.454,36.191],[139.358,36.253],[139.32,36.236],[139.237,36.246],[139.164,36.279],[139.127,36.279],[139.063,36.196],[139.061,36.152],[138.931,36.088],[138.846,36.067],[138.828,36.037],[138.769,36.039],[138.713,35.985],[138.739,35.939],[138.729,35.909],[138.777,35.9],[138.814,35.862],[138.856,35.865],[138.892,35.84],[138.944,35.855],[138.954,35.875],[139.024,35.897],[139.072,35.872],[139.135,35.865],[139.192,35.84],[139.272,35.84],[139.38,35.766],[139.445,35.767],[139.538,35.791],[139.575,35.766],[139.641,35.798],[139.755,35.787],[139.772,35.817],[139.894,35.783],[139.9,35.864],[139.814,35.997],[139.815,36.037],[139.776,36.091],[139.728,36.09],[139.688,36.2]]]},"properties":{"name":"埼玉県","code":"11"}},
{"type":"Feature","geometry":{"type":"Polygon","coordinates":[[[139.776,36.091],[139.815,36.037],[139.814,35.997],[139.9,35.864],[139.894,35.783],[139.879,35.768],[139.916,35.708],[139.871,35.639],[139.983,35.682],[140.084,35.597],[140.061,35.544],[140.007,35.479],[139.949,35.442],[139.903,35.431],[139.904,35.375],[139.846,35.375],[139.809,35.307],[139.852,35.287],[139.867,35.219],[139.83,35.203],[139.818,35.155],[139.839,35.129],[139.821,35.072],[139.858,35.011],[139.797,34.974],[139.837,34.904],[139.908,34.905],[139.965,34.946],[139.994,35.024],[140.075,35.058],[140.134,35.122],[140.233,35.115],[140.248,35.134],[140.325,35.139],[140.374,35.18],[140.405,35.237],[140.415,35.309],[140.391,35.372],[140.406,35.448],[140.43,35.498],[140.496,35.576],[140.644,35.683],[140.693,35.7],[140.751,35.693],[140.819,35.714],[140.852,35.745],[140.815,35.742],[140.742,35.785],[140.707,35.836],[140.631,35.859],[140.608,35.896],[140.511,35.959],[140.487,35.925],[140.364,35.899],[140.323,35.866],[140.281,35.874],[140.157,35.843],[140.127,35.871],[140.074,35.877],[139.939,35.941],[139.934,35.968],[139.884,35.989],[139.858,36.029],[139.776,36.091]]]},"properties":{"name":"千葉県","code":"12"}},
{"type":"Feature","geometry":{"type":"Polygon","coordinates":[[[138.944,35.855],[138.97,35.831],[138.984,35.769],[139.022,35.723],[139.131,35.672],[139.198,35.653],[139.239,35.607],[139.34,35.606],[139.409,35.575],[139.458,35.528],[139.482,35.556],[139.495,35.617],[139.525,35.643],[139.612,35.616],[139.681,35.561],[139.777,35.534],[139.785,35.571],[139.747,35.59],[139.787,35.627],[139.871,35.639],[139.916,35.708],[139.879,35.768],[139.894,35.783],[139.772,35.817],[139.755,35.787],[139.641,35.798],[139.575,35.766],[139.538,35.791],[139.445,35.767],[139.38,35.766],[139.272,35.84],[139.192,35.84],[139.135,35.865],[139.072,35.872],[139.024,35.897],[138.954,35.875],[138.944,35.855]]]},"properties":{"name":"東京都","code":"13"}},
{"type":"Feature","geometry":{"type":"Polygon","coordinates":[[[139.131,35.672],[139.128,35.562],[139.086,35.512],[139.028,35.481],[138.954,35.46],[138.916,35.401],[139.002,35.399],[139.005,35.29],[138.975,35.264],[138.988,35.201],[139.04,35.151],[139.112,35.141],[139.144,35.153],[139.144,35.234],[139.208,35.277],[139.338,35.314],[139.454,35.318],[139.569,35.294],[139.621,35.22],[139.6,35.194],[139.608,35.143],[139.656,35.137],[139.657,35.186],[139.725,35.212],[139.733,35.266],[139.691,35.267],[139.639,35.301],[139.651,35.36],[139.645,35.476],[139.749,35.507],[139.777,35.534],[139.681,35.561],[139.612,35.616],[139.525,35.643],[139.495,35.617],[139.482,35.556],[139.458,35.528],[139.409,35.575],[139.34,35.606],[139.239,35.607],[139.198,35.653],[139.131,35.672]]]},"properties":{"name":"神奈川県","code":"14"}},
{"type":"Feature","geometry":{"type":"MultiPolygon","coordinates":[[[[139.548,38.553],[139.456,38.394],[139.449,38.234],[139.43,38.181],[139.35,38.082],[139.303,38.04],[139.202,37.983],[139.094,37.959],[138.877,37.844],[138.815,37.787],[138.767,37.644],[138.713,37.559],[138.665,37.53],[138.552,37.376],[138.437,37.322],[138.285,37.204],[138.237,37.177],[138.168,37.162],[138.102,37.174],[138.028,37.117],[137.912,37.061],[137.651,36.981],[137.635,36.98],[137.72,36.927],[137.732,36.824],[137.762,36.766],[137.82,36.798],[137.878,36.873],[137.871,36.903],[137.92,36.92],[138.031,36.891],[138.003,36.826],[138.073,36.817],[138.115,36.85],[138.163,36.844],[138.213,36.868],[138.268,36.86],[138.297,36.911],[138.343,36.921],[138.39,36.991],[138.455,37.02],[138.525,37.03],[138.587,36.988],[138.596,36.907],[138.694,36.852],[138.696,36.809],[138.67,36.774],[138.696,36.739],[138.727,36.764],[138.789,36.745],[138.88,36.825],[138.929,36.833],[138.932,36.894],[138.979,36.891],[138.97,36.981],[139.03,36.984],[139.091,37.02],[139.097,37.059],[139.179,36.991],[139.18,36.965],[139.232,36.941],[139.257,37.056],[139.235,37.112],[139.253,37.161],[139.218,37.209],[139.166,37.232],[139.213,37.288],[139.232,37.387],[139.223,37.449],[139.406,37.466],[139.414,37.51],[139.457,37.518],[139.567,37.502],[139.572,37.57],[139.549,37.61],[139.568,37.653],[139.624,37.695],[139.658,37.755],[139.729,37.831],[139.727,37.834],[139.727,37.835],[139.724,37.837],[139.721,37.84],[139.716,37.846],[139.716,37.847],[139.715,37.853],[139.698,37.848],[139.694,37.848],[139.693,37.848],[139.69,37.847],[139.688,37.846],[139.681,37.847],[139.638,37.88],[139.639,37.984],[139.692,38.113],[139.682,38.17],[139.713,38.207],[139.786,38.192],[139.86,38.231],[139.899,38.293],[139.849,38.343],[139.733,38.371],[139.712,38.472],[139.722,38.496],[139.599,38.522],[139.548,38.553]]],[[[138.204,37.823],[138.254,37.804],[138.362,37.832],[138.49,37.92],[138.573,38.062],[138.563,38.088],[138.48,38.062],[138.437,38.082],[138.435,38.115],[138.503,38.241],[138.511,38.331],[138.473,38.322],[138.437,38.262],[138.327,38.196],[138.301,38.149],[138.24,38.081],[138.231,37.976],[138.304,38.006],[138.344,37.965],[138.278,37.907],[138.269,37.848],[138.204,37.823]]]]},"properties":{"name":"新潟県","code":"15"}},
{"type":"Feature","geometry":{"type":"Polygon","coordinates":[[[137.635,36.98],[137.491,36.954],[137.428,36.926],[137.393,36.807],[137.334,36.762],[137.187,36.757],[137.087,36.783],[137.01,36.834],[136.993,36.879],[137.052,36.959],[136.987,36.967],[136.931,36.951],[136.879,36.906],[136.839,36.745],[136.789,36.719],[136.819,36.668],[136.784,36.627],[136.817,36.552],[136.795,36.511],[136.778,36.431],[136.806,36.355],[136.792,36.299],[136.907,36.361],[136.955,36.339],[137.003,36.287],[137.079,36.384],[137.16,36.456],[137.209,36.432],[137.277,36.465],[137.32,36.424],[137.395,36.456],[137.41,36.425],[137.461,36.412],[137.511,36.424],[137.587,36.39],[137.633,36.425],[137.652,36.488],[137.697,36.515],[137.688,36.562],[137.753,36.594],[137.762,36.766],[137.732,36.824],[137.72,36.927],[137.635,36.98]]]},"properties":{"name":"富山県","code":"16"}},
{"type":"Feature","geometry":{"type":"Polygon","coordinates":[[[137.052,36.959],[137.053,37.095],[137.021,37.101],[136.973,37.047],[136.869,37.113],[136.885,37.165],[136.932,37.221],[137.003,37.189],[137.069,37.218],[137.099,37.279],[137.169,37.302],[137.214,37.296],[137.268,37.337],[137.237,37.386],[137.274,37.439],[137.351,37.444],[137.351,37.504],[137.275,37.533],[137.21,37.506],[137.144,37.499],[137.017,37.433],[136.924,37.395],[136.88,37.406],[136.756,37.365],[136.725,37.328],[136.734,37.279],[136.683,37.209],[136.678,37.138],[136.716,37.146],[136.723,37.054],[136.769,36.999],[136.75,36.927],[136.768,36.903],[136.728,36.795],[136.662,36.69],[136.585,36.598],[136.414,36.417],[136.347,36.365],[136.3,36.352],[136.244,36.295],[136.302,36.258],[136.344,36.173],[136.409,36.172],[136.44,36.137],[136.488,36.159],[136.56,36.153],[136.642,36.098],[136.662,36.068],[136.754,36.086],[136.85,36.252],[136.792,36.299],[136.806,36.355],[136.778,36.431],[136.795,36.511],[136.817,36.552],[136.784,36.627],[136.819,36.668],[136.789,36.719],[136.839,36.745],[136.879,36.906],[136.931,36.951],[136.987,36.967],[137.052,36.959]]]},"properties":{"name":"石川県","code":"17"}},
{"type":"Feature","geometry":{"type":"Polygon","coordinates":[[[136.244,36.295],[136.172,36.253],[136.057,36.129],[136.01,36.033],[135.959,35.976],[135.997,35.936],[135.994,35.888],[136.07,35.825],[136.1,35.778],[136.099,35.726],[136.074,35.667],[136.02,35.764],[135.954,35.723],[135.975,35.698],[135.955,35.629],[135.854,35.603],[135.85,35.573],[135.788,35.531],[135.715,35.57],[135.737,35.494],[135.645,35.479],[135.621,35.522],[135.564,35.49],[135.519,35.494],[135.487,35.558],[135.45,35.521],[135.458,35.468],[135.51,35.424],[135.537,35.377],[135.642,35.367],[135.701,35.344],[135.769,35.356],[135.813,35.413],[135.891,35.403],[135.916,35.471],[135.952,35.506],[136.007,35.492],[136.028,35.529],[136.106,35.529],[136.118,35.577],[136.177,35.595],[136.148,35.663],[136.194,35.7],[136.281,35.659],[136.324,35.717],[136.328,35.775],[136.377,35.795],[136.431,35.775],[136.512,35.772],[136.789,35.799],[136.832,35.859],[136.811,35.913],[136.753,35.956],[136.727,35.996],[136.754,36.086],[136.662,36.068],[136.642,36.098],[136.56,36.153],[136.488,36.159],[136.44,36.137],[136.409,36.172],[136.344,36.173],[136.302,36.258],[136.244,36.295]]]},"properties":{"name":"福井県","code":"18"}},
{"type":"Feature","geometry":{"type":"Polygon","coordinates":[[[138.729,35.909],[138.676,35.87],[138.622,35.87],[138.591,35.92],[138.506,35.919],[138.37,35.971],[138.284,35.859],[138.249,35.886],[138.185,35.791],[138.237,35.758],[138.181,35.711],[138.219,35.645],[138.259,35.553],[138.258,35.316],[138.328,35.328],[138.371,35.305],[138.367,35.27],[138.399,35.2],[138.491,35.168],[138.528,35.198],[138.512,35.314],[138.535,35.331],[138.532,35.409],[138.578,35.441],[138.609,35.393],[138.671,35.393],[138.681,35.358],[138.873,35.382],[138.916,35.401],[138.954,35.46],[139.028,35.481],[139.086,35.512],[139.128,35.562],[139.131,35.672],[139.022,35.723],[138.984,35.769],[138.97,35.831],[138.944,35.855],[138.892,35.84],[138.856,35.865],[138.814,35.862],[138.777,35.9],[138.729,35.909]]]},"properties":{"name":"山梨県","code":"19"}},
{"type":"Feature","geometry":{"type":"Polygon","coordinates":[[[138.696,36.739],[138.67,36.774],[138.696,36.809],[138.694,36.852],[138.596,36.907],[138.587,36.988],[138.525,37.03],[138.455,37.02],[138.39,36.991],[138.343,36.921],[138.297,36.911],[138.268,36.86],[138.213,36.868],[138.163,36.844],[138.115,36.85],[138.073,36.817],[138.003,36.826],[138.031,36.891],[137.92,36.92],[137.871,36.903],[137.878,36.873],[137.82,36.798],[137.762,36.766],[137.753,36.594],[137.688,36.562],[137.697,36.515],[137.652,36.488],[137.633,36.425],[137.587,36.39],[137.652,36.322],[137.648,36.289],[137.575,36.204],[137.551,36.11],[137.608,36.078],[137.59,36.007],[137.543,35.983],[137.476,35.894],[137.438,35.905],[137.381,35.892],[137.338,35.798],[137.392,35.799],[137.485,35.725],[137.497,35.688],[137.545,35.651],[137.514,35.608],[137.581,35.539],[137.629,35.507],[137.593,35.447],[137.634,35.399],[137.598,35.379],[137.603,35.332],[137.562,35.289],[137.55,35.243],[137.591,35.199],[137.706,35.234],[137.779,35.203],[137.838,35.212],[137.873,35.219],[137.895,35.258],[137.967,35.283],[138.055,35.344],[138.142,35.373],[138.119,35.446],[138.157,35.46],[138.138,35.522],[138.184,35.573],[138.219,35.645],[138.181,35.711],[138.237,35.758],[138.185,35.791],[138.249,35.886],[138.284,35.859],[138.37,35.971],[138.506,35.919],[138.591,35.92],[138.622,35.87],[138.676,35.87],[138.729,35.909],[138.739,35.939],[138.713,35.985],[138.631,36.028],[138.635,36.206],[138.602,36.249],[138.613,36.286],[138.653,36.303],[138.648,36.407],[138.608,36.423],[138.507,36.414],[138.401,36.435],[138.404,36.522],[138.429,36.598],[138.458,36.634],[138.525,36.651],[138.544,36.704],[138.696,36.739]]]},"properties":{"name":"長野県","code":"20"}},
{"type":"Feature","geometry":{"type":"Polygon","coordinates":[[[136.792,36.299],[136.85,36.252],[136.754,36.086],[136.727,35.996],[136.753,35.956],[136.811,35.913],[136.832,35.859],[136.789,35.799],[136.512,35.772],[136.431,35.775],[136.377,35.795],[136.328,35.775],[136.324,35.717],[136.281,35.659],[136.324,35.617],[136.322,35.544],[136.384,35.533],[136.387,35.488],[136.426,35.448],[136.412,35.419],[136.444,35.389],[136.389,35.25],[136.415,35.218],[136.534,35.257],[136.561,35.209],[136.616,35.15],[136.673,35.135],[136.678,35.241],[136.775,35.37],[136.834,35.356],[136.987,35.402],[137.045,35.367],[137.067,35.309],[137.165,35.283],[137.187,35.253],[137.263,35.285],[137.308,35.29],[137.425,35.227],[137.562,35.289],[137.603,35.332],[137.598,35.379],[137.634,35.399],[137.593,35.447],[137.629,35.507],[137.581,35.539],[137.514,35.608],[137.545,35.651],[137.497,35.688],[137.485,35.725],[137.392,35.799],[137.338,35.798],[137.381,35.892],[137.438,35.905],[137.476,35.894],[137.543,35.983],[137.59,36.007],[137.608,36.078],[137.551,36.11],[137.575,36.204],[137.648,36.289],[137.652,36.322],[137.587,36.39],[137.511,36.424],[137.461,36.412],[137.41,36.425],[137.395,36.456],[137.32,36.424],[137.277,36.465],[137.209,36.432],[137.16,36.456],[137.079,36.384],[137.003,36.287],[136.955,36.339],[136.907,36.361],[136.792,36.299]]]},"properties":{"name":"岐阜県","code":"21"}},
{"type":"Feature","geometry":{"type":"Polygon","coordinates":[[[138.916,35.401],[138.873,35.382],[138.681,35.358],[138.671,35.393],[138.609,35.393],[138.578,35.441],[138.532,35.409],[138.535,35.331],[138.512,35.314],[138.528,35.198],[138.491,35.168],[138.399,35.2],[138.367,35.27],[138.371,35.305],[138.328,35.328],[138.258,35.316],[138.259,35.553],[138.219,35.645],[138.184,35.573],[138.138,35.522],[138.157,35.46],[138.119,35.446],[138.142,35.373],[138.055,35.344],[137.967,35.283],[137.895,35.258],[137.873,35.219],[137.838,35.212],[137.81,35.175],[137.801,35.107],[137.74,35.057],[137.641,34.893],[137.565,34.852],[137.5,34.832],[137.474,34.75],[137.485,34.674],[137.582,34.68],[137.687,34.668],[137.777,34.648],[137.925,34.668],[137.998,34.662],[138.227,34.595],[138.195,34.664],[138.233,34.732],[138.289,34.762],[138.337,34.829],[138.326,34.861],[138.358,34.915],[138.508,34.978],[138.524,35.043],[138.555,35.1],[138.68,35.132],[138.738,35.134],[138.808,35.116],[138.876,35.066],[138.899,35.025],[138.786,35.026],[138.762,34.971],[138.79,34.91],[138.757,34.886],[138.751,34.821],[138.775,34.768],[138.743,34.693],[138.777,34.64],[138.825,34.606],[138.912,34.635],[138.959,34.67],[139.005,34.751],[139.053,34.781],[139.077,34.842],[139.13,34.878],[139.148,34.936],[139.083,35],[139.069,35.053],[139.078,35.1],[139.112,35.141],[139.04,35.151],[138.988,35.201],[138.975,35.264],[139.005,35.29],[139.002,35.399],[138.916,35.401]]]},"properties":{"name":"静岡県","code":"22"}},
{"type":"Feature","geometry":{"type":"Polygon","coordinates":[[[137.562,35.289],[137.425,35.227],[137.308,35.29],[137.263,35.285],[137.187,35.253],[137.165,35.283],[137.067,35.309],[137.045,35.367],[136.987,35.402],[136.834,35.356],[136.775,35.37],[136.678,35.241],[136.673,35.135],[136.75,35.081],[136.771,35.021],[136.827,35.083],[136.89,35.07],[136.82,34.966],[136.822,34.884],[136.867,34.838],[136.843,34.765],[136.86,34.738],[136.943,34.701],[136.973,34.717],[136.915,34.77],[136.935,34.857],[137.025,34.778],[137.187,34.788],[137.226,34.819],[137.303,34.793],[137.32,34.733],[137.285,34.731],[137.207,34.678],[137.118,34.636],[137.06,34.653],[137.036,34.578],[137.12,34.587],[137.341,34.648],[137.485,34.674],[137.474,34.75],[137.5,34.832],[137.565,34.852],[137.641,34.893],[137.74,35.057],[137.801,35.107],[137.81,35.175],[137.838,35.212],[137.779,35.203],[137.706,35.234],[137.591,35.199],[137.55,35.243],[137.562,35.289]]]},"properties":{"name":"愛知県","code":"23"}},
{"type":"Feature","geometry":{"type":"Polygon","coordinates":[[[136.415,35.218],[136.409,35.187],[136.452,35.166],[136.436,35.131],[136.442,35.067],[136.418,35.05],[136.416,34.981],[136.373,34.942],[136.366,34.905],[136.251,34.858],[136.181,34.886],[136.132,34.883],[136.091,34.812],[136.022,34.792],[136.055,34.739],[136.083,34.667],[136.047,34.585],[136.084,34.559],[136.156,34.56],[136.182,34.517],[136.22,34.516],[136.206,34.449],[136.128,34.445],[136.089,34.429],[136.069,34.389],[136.102,34.336],[136.095,34.301],[136.132,34.252],[136.098,34.202],[136.115,34.16],[136.094,34.067],[136.104,34.028],[136.023,34.037],[136.004,34.01],[135.97,33.93],[135.909,33.918],[135.881,33.909],[135.875,33.862],[135.858,33.873],[135.856,33.82],[135.94,33.738],[136.012,33.723],[136.078,33.859],[136.192,33.919],[136.235,33.98],[136.272,33.973],[136.282,34.022],[136.244,34.038],[136.236,34.087],[136.294,34.096],[136.277,34.137],[136.339,34.205],[136.484,34.226],[136.53,34.268],[136.559,34.285],[136.605,34.259],[136.689,34.306],[136.754,34.303],[136.765,34.26],[136.844,34.251],[136.884,34.299],[136.875,34.378],[136.925,34.416],[136.915,34.452],[136.867,34.481],[136.765,34.514],[136.666,34.559],[136.647,34.589],[136.555,34.612],[136.549,34.671],[136.524,34.684],[136.531,34.747],[136.647,34.904],[136.65,34.991],[136.75,35.036],[136.771,35.021],[136.75,35.081],[136.673,35.135],[136.616,35.15],[136.561,35.209],[136.534,35.257],[136.415,35.218]]]},"properties":{"name":"三重県","code":"24"}},
{"type":"Feature","geometry":{"type":"Polygon","coordinates":[[[135.769,35.356],[135.845,35.261],[135.831,35.211],[135.856,35.159],[135.836,35.059],[135.816,35.047],[135.874,34.955],[135.867,34.892],[135.946,34.852],[136.001,34.845],[136.022,34.792],[136.091,34.812],[136.132,34.883],[136.181,34.886],[136.251,34.858],[136.366,34.905],[136.373,34.942],[136.416,34.981],[136.418,35.05],[136.442,35.067],[136.436,35.131],[136.452,35.166],[136.409,35.187],[136.415,35.218],[136.389,35.25],[136.444,35.389],[136.412,35.419],[136.426,35.448],[136.387,35.488],[136.384,35.533],[136.322,35.544],[136.324,35.617],[136.281,35.659],[136.194,35.7],[136.148,35.663],[136.177,35.595],[136.118,35.577],[136.106,35.529],[136.028,35.529],[136.007,35.492],[135.952,35.506],[135.916,35.471],[135.891,35.403],[135.813,35.413],[135.769,35.356]]]},"properties":{"name":"滋賀県","code":"25"}},
{"type":"Feature","geometry":{"type":"Polygon","coordinates":[[[135.487,35.558],[135.436,35.582],[135.336,35.532],[135.335,35.506],[135.243,35.537],[135.245,35.62],[135.265,35.665],[135.307,35.699],[135.226,35.775],[135.093,35.738],[135.026,35.69],[134.909,35.645],[134.868,35.658],[134.854,35.589],[134.919,35.538],[134.93,35.512],[135.036,35.54],[135.049,35.408],[134.991,35.386],[134.923,35.391],[134.925,35.312],[135.056,35.259],[135.157,35.261],[135.207,35.161],[135.274,35.177],[135.382,35.13],[135.401,35.094],[135.371,35.045],[135.382,35.01],[135.482,34.995],[135.488,34.967],[135.541,34.915],[135.592,34.966],[135.676,34.899],[135.695,34.848],[135.747,34.801],[135.729,34.778],[135.756,34.728],[135.849,34.706],[135.912,34.744],[135.973,34.742],[136.014,34.708],[136.055,34.739],[136.022,34.792],[136.001,34.845],[135.946,34.852],[135.867,34.892],[135.874,34.955],[135.816,35.047],[135.836,35.059],[135.856,35.159],[135.831,35.211],[135.845,35.261],[135.769,35.356],[135.701,35.344],[135.642,35.367],[135.537,35.377],[135.51,35.424],[135.458,35.468],[135.45,35.521],[135.487,35.558]]]},"properties":{"name":"京都府","code":"26"}},
{"type":"Feature","geometry":{"type":"Polygon","coordinates":[[[135.371,35.045],[135.355,35.025],[135.361,34.954],[135.442,34.939],[135.416,34.818],[135.458,34.736],[135.407,34.697],[135.447,34.641],[135.416,34.594],[135.431,34.53],[135.375,34.511],[135.337,34.446],[135.217,34.344],[135.093,34.312],[135.11,34.273],[135.185,34.279],[135.247,34.313],[135.304,34.31],[135.489,34.356],[135.512,34.338],[135.577,34.376],[135.651,34.383],[135.676,34.399],[135.685,34.484],[135.652,34.604],[135.729,34.778],[135.747,34.801],[135.695,34.848],[135.676,34.899],[135.592,34.966],[135.541,34.915],[135.488,34.967],[135.482,34.995],[135.382,35.01],[135.371,35.045]]]},"properties":{"name":"大阪府","code":"27"}},
{"type":"Feature","geometry":{"type":"MultiPolygon","coordinates":[[[[134.868,35.658],[134.686,35.656],[134.664,35.667],[134.556,35.656],[134.538,35.67],[134.453,35.629],[134.37,35.615],[134.402,35.595],[134.426,35.542],[134.44,35.443],[134.48,35.425],[134.471,35.38],[134.514,35.354],[134.515,35.277],[134.435,35.229],[134.403,35.241],[134.35,35.09],[134.254,34.946],[134.295,34.907],[134.262,34.882],[134.266,34.826],[134.317,34.802],[134.322,34.722],[134.369,34.745],[134.527,34.783],[134.57,34.758],[134.661,34.784],[134.761,34.762],[134.827,34.706],[134.847,34.715],[134.973,34.644],[135.046,34.625],[135.183,34.65],[135.194,34.683],[135.339,34.722],[135.363,34.688],[135.407,34.697],[135.458,34.736],[135.416,34.818],[135.442,34.939],[135.361,34.954],[135.355,35.025],[135.371,35.045],[135.401,35.094],[135.382,35.13],[135.274,35.177],[135.207,35.161],[135.157,35.261],[135.056,35.259],[134.925,35.312],[134.923,35.391],[134.991,35.386],[135.049,35.408],[135.036,35.54],[134.93,35.512],[134.919,35.538],[134.854,35.589],[134.868,35.658]]],[[[134.657,34.293],[134.7,34.222],[134.8,34.2],[134.833,34.224],[134.952,34.266],[134.897,34.347],[134.903,34.421],[134.98,34.504],[135.023,34.588],[134.984,34.604],[134.935,34.549],[134.888,34.53],[134.847,34.477],[134.819,34.47],[134.755,34.386],[134.728,34.331],[134.686,34.326],[134.657,34.293]]]]},"properties":{"name":"兵庫県","code":"28"}},
{"type":"Feature","geometry":{"type":"Polygon","coordinates":[[[135.909,33.918],[135.893,33.942],[135.929,33.98],[136.004,34.01],[136.023,34.037],[136.104,34.028],[136.094,34.067],[136.115,34.16],[136.098,34.202],[136.132,34.252],[136.095,34.301],[136.102,34.336],[136.069,34.389],[136.089,34.429],[136.128,34.445],[136.206,34.449],[136.22,34.516],[136.182,34.517],[136.156,34.56],[136.084,34.559],[136.047,34.585],[136.083,34.667],[136.055,34.739],[136.014,34.708],[135.973,34.742],[135.912,34.744],[135.849,34.706],[135.756,34.728],[135.729,34.778],[135.652,34.604],[135.685,34.484],[135.676,34.399],[135.651,34.383],[135.683,34.27],[135.668,34.224],[135.634,34.205],[135.622,34.158],[135.54,34.075],[135.58,34.058],[135.636,33.991],[135.606,33.899],[135.648,33.877],[135.685,33.904],[135.756,33.885],[135.816,33.906],[135.858,33.873],[135.875,33.862],[135.881,33.909],[135.909,33.918]]]},"properties":{"name":"奈良県","code":"29"}},
{"type":"Feature","geometry":{"type":"MultiPolygon","coordinates":[[[[135.858,33.873],[135.816,33.906],[135.756,33.885],[135.685,33.904],[135.648,33.877],[135.606,33.899],[135.636,33.991],[135.58,34.058],[135.54,34.075],[135.622,34.158],[135.634,34.205],[135.668,34.224],[135.683,34.27],[135.651,34.383],[135.577,34.376],[135.512,34.338],[135.489,34.356],[135.304,34.31],[135.247,34.313],[135.185,34.279],[135.11,34.273],[135.093,34.312],[135.074,34.282],[135.14,34.188],[135.18,34.187],[135.183,34.143],[135.135,34.139],[135.097,34.094],[135.171,34.032],[135.148,34.005],[135.093,33.993],[135.101,33.95],[135.063,33.906],[135.15,33.879],[135.188,33.818],[135.351,33.747],[135.383,33.691],[135.33,33.67],[135.393,33.641],[135.389,33.595],[135.53,33.52],[135.628,33.508],[135.725,33.477],[135.838,33.512],[135.954,33.578],[135.939,33.645],[136.012,33.723],[135.94,33.738],[135.856,33.82],[135.858,33.873]]],[[[136.004,34.01],[135.929,33.98],[135.893,33.942],[135.909,33.918],[135.97,33.93],[136.004,34.01]]]]},"properties":{"name":"和歌山県","code":"30"}},
{"type":"Feature","geometry":{"type":"Polygon","coordinates":[[[134.37,35.615],[134.294,35.589],[134.272,35.561],[134.169,35.533],[134.072,35.52],[133.989,35.523],[133.816,35.501],[133.669,35.507],[133.591,35.532],[133.498,35.516],[133.447,35.494],[133.402,35.453],[133.322,35.466],[133.256,35.509],[133.245,35.549],[133.199,35.526],[133.222,35.481],[133.309,35.431],[133.324,35.374],[133.296,35.349],[133.31,35.268],[133.182,35.234],[133.195,35.17],[133.149,35.14],[133.136,35.074],[133.25,35.079],[133.269,35.058],[133.288,35.096],[133.326,35.094],[133.412,35.121],[133.393,35.169],[133.448,35.171],[133.501,35.193],[133.517,35.241],[133.555,35.242],[133.596,35.345],[133.749,35.317],[133.8,35.293],[133.925,35.307],[133.932,35.333],[134.015,35.35],[134.008,35.308],[134.086,35.307],[134.151,35.258],[134.168,35.172],[134.25,35.201],[134.323,35.203],[134.403,35.241],[134.435,35.229],[134.515,35.277],[134.514,35.354],[134.471,35.38],[134.48,35.425],[134.44,35.443],[134.426,35.542],[134.402,35.595],[134.37,35.615]]]},"properties":{"name":"鳥取県","code":"31"}},
{"type":"Feature","geometry":{"type":"MultiPolygon","coordinates":[[[[133.245,35.549],[133.151,35.56],[133.119,35.581],[133.058,35.579],[133.027,35.539],[132.966,35.515],[132.87,35.511],[132.628,35.434],[132.673,35.399],[132.663,35.331],[132.614,35.281],[132.539,35.257],[132.403,35.17],[132.365,35.121],[132.304,35.053],[132.236,35.034],[132.148,34.966],[132.105,34.945],[131.991,34.829],[131.899,34.774],[131.849,34.711],[131.763,34.679],[131.691,34.681],[131.695,34.621],[131.721,34.582],[131.707,34.533],[131.668,34.504],[131.713,34.428],[131.787,34.434],[131.763,34.381],[131.775,34.338],[131.831,34.303],[131.899,34.318],[131.959,34.306],[132.014,34.382],[131.99,34.413],[132.039,34.469],[132.069,34.468],[132.047,34.512],[132.114,34.563],[132.117,34.613],[132.157,34.681],[132.132,34.702],[132.222,34.75],[132.266,34.804],[132.298,34.777],[132.437,34.821],[132.484,34.797],[132.568,34.806],[132.615,34.842],[132.67,34.833],[132.701,34.881],[132.66,34.891],[132.685,34.951],[132.75,34.96],[132.861,35.096],[132.893,35.105],[132.948,35.076],[132.991,35.101],[133.06,35.081],[133.136,35.074],[133.149,35.14],[133.195,35.17],[133.182,35.234],[133.31,35.268],[133.296,35.349],[133.324,35.374],[133.309,35.431],[133.222,35.481],[133.199,35.526],[133.245,35.549]]],[[[133.177,36.256],[133.185,36.214],[133.233,36.17],[133.34,36.17],[133.368,36.205],[133.379,36.277],[133.283,36.344],[133.197,36.299],[133.177,36.256]]]]},"properties":{"name":"島根県","code":"32"}},
{"type":"Feature","geometry":{"type":"Polygon","coordinates":[[[134.403,35.241],[134.323,35.203],[134.25,35.201],[134.168,35.172],[134.151,35.258],[134.086,35.307],[134.008,35.308],[134.015,35.35],[133.932,35.333],[133.925,35.307],[133.8,35.293],[133.749,35.317],[133.596,35.345],[133.555,35.242],[133.517,35.241],[133.501,35.193],[133.448,35.171],[133.393,35.169],[133.412,35.121],[133.326,35.094],[133.288,35.096],[133.269,35.058],[133.322,35.006],[133.297,34.956],[133.294,34.903],[133.378,34.808],[133.365,34.767],[133.374,34.695],[133.403,34.672],[133.385,34.617],[133.446,34.556],[133.447,34.48],[133.456,34.455],[133.524,34.451],[133.592,34.471],[133.659,34.52],[133.705,34.523],[133.704,34.478],[133.83,34.473],[133.919,34.45],[133.965,34.495],[133.959,34.523],[134.021,34.548],[134.054,34.587],[134.086,34.58],[134.171,34.614],[134.244,34.715],[134.322,34.722],[134.317,34.802],[134.266,34.826],[134.262,34.882],[134.295,34.907],[134.254,34.946],[134.35,35.09],[134.403,35.241]]]},"properties":{"name":"岡山県","code":"33"}},
{"type":"Feature","geometry":{"type":"Polygon","coordinates":[[[133.136,35.074],[133.06,35.081],[132.991,35.101],[132.948,35.076],[132.893,35.105],[132.861,35.096],[132.75,34.96],[132.685,34.951],[132.66,34.891],[132.701,34.881],[132.67,34.833],[132.615,34.842],[132.568,34.806],[132.484,34.797],[132.437,34.821],[132.298,34.777],[132.266,34.804],[132.222,34.75],[132.132,34.702],[132.157,34.681],[132.117,34.613],[132.114,34.563],[132.047,34.512],[132.069,34.468],[132.07,34.371],[132.14,34.282],[132.145,34.236],[132.246,34.211],[132.23,34.255],[132.282,34.286],[132.32,34.339],[132.398,34.363],[132.492,34.353],[132.514,34.268],[132.548,34.225],[132.643,34.202],[132.703,34.236],[132.749,34.242],[132.802,34.309],[132.851,34.292],[132.894,34.327],[133.015,34.329],[133.079,34.345],[133.127,34.383],[133.21,34.411],[133.272,34.407],[133.292,34.383],[133.368,34.37],[133.385,34.42],[133.431,34.424],[133.447,34.48],[133.446,34.556],[133.385,34.617],[133.403,34.672],[133.374,34.695],[133.365,34.767],[133.378,34.808],[133.294,34.903],[133.297,34.956],[133.322,35.006],[133.269,35.058],[133.25,35.079],[133.136,35.074]]]},"properties":{"name":"広島県","code":"34"}},
{"type":"Feature","geometry":{"type":"MultiPolygon","coordinates":[[[[131.691,34.681],[131.661,34.655],[131.605,34.662],[131.557,34.615],[131.555,34.58],[131.504,34.534],[131.465,34.534],[131.462,34.486],[131.372,34.414],[131.331,34.415],[131.293,34.38],[131.2,34.398],[131.154,34.373],[131.129,34.413],[131.063,34.421],[131.018,34.375],[130.925,34.342],[130.867,34.288],[130.922,34.239],[130.934,34.189],[130.862,34.104],[130.911,34.062],[130.913,33.955],[130.934,33.948],[130.997,33.99],[131.031,34.039],[131.096,34.035],[131.161,33.986],[131.185,33.939],[131.239,33.951],[131.253,33.925],[131.35,33.966],[131.394,34.026],[131.442,33.992],[131.507,34.024],[131.539,33.998],[131.744,34.066],[131.793,34.054],[131.883,33.981],[131.959,33.948],[131.999,33.916],[132.053,33.916],[132.12,33.875],[132.13,33.953],[132.185,33.961],[132.213,34.002],[132.203,34.125],[132.248,34.133],[132.246,34.211],[132.145,34.236],[132.14,34.282],[132.07,34.371],[132.069,34.468],[132.039,34.469],[131.99,34.413],[132.014,34.382],[131.959,34.306],[131.899,34.318],[131.831,34.303],[131.775,34.338],[131.763,34.381],[131.787,34.434],[131.713,34.428],[131.668,34.504],[131.707,34.533],[131.721,34.582],[131.695,34.621],[131.691,34.681]]],[[[132.173,33.924],[132.22,33.874],[132.286,33.902],[132.234,33.968],[132.173,33.924]]]]},"properties":{"name":"山口県","code":"35"}},
{"type":"Feature","geometry":{"type":"Polygon","coordinates":[[[133.661,33.882],[133.678,33.859],[133.818,33.837],[133.914,33.791],[133.951,33.829],[134.033,33.809],[134.059,33.777],[134.066,33.689],[134.126,33.696],[134.175,33.684],[134.15,33.631],[134.196,33.561],[134.306,33.548],[134.355,33.578],[134.363,33.625],[134.403,33.66],[134.503,33.694],[134.566,33.733],[134.582,33.772],[134.699,33.836],[134.646,33.86],[134.699,33.906],[134.696,33.952],[134.64,34.007],[134.592,34.008],[134.586,34.052],[134.616,34.144],[134.642,34.178],[134.586,34.201],[134.59,34.225],[134.506,34.226],[134.44,34.208],[134.42,34.158],[134.26,34.183],[134.147,34.166],[134.123,34.119],[134.082,34.121],[133.994,34.073],[133.922,34.114],[133.778,34.079],[133.68,34.013],[133.693,33.944],[133.661,33.882]]]},"properties":{"name":"徳島県","code":"36"}},
{"type":"Feature","geometry":{"type":"MultiPolygon","coordinates":[[[[134.44,34.208],[134.39,34.255],[134.348,34.252],[134.256,34.287],[134.266,34.319],[134.214,34.351],[134.155,34.339],[134.16,34.389],[134.085,34.353],[134.038,34.349],[133.959,34.378],[133.895,34.355],[133.752,34.279],[133.698,34.234],[133.608,34.231],[133.649,34.187],[133.628,34.053],[133.599,34.044],[133.68,34.013],[133.778,34.079],[133.922,34.114],[133.994,34.073],[134.082,34.121],[134.123,34.119],[134.147,34.166],[134.26,34.183],[134.42,34.158],[134.44,34.208]]],[[[134.159,34.506],[134.182,34.487],[134.267,34.467],[134.349,34.461],[134.36,34.534],[134.344,34.565],[134.159,34.506]]]]},"properties":{"name":"香川県","code":"37"}},
{"type":"Feature","geometry":{"type":"Polygon","coordinates":[[[133.68,34.013],[133.599,34.044],[133.552,33.995],[133.491,33.969],[133.453,33.984],[133.356,33.979],[133.319,33.994],[133.249,33.976],[133.245,33.957],[133.14,33.928],[133.068,33.975],[133.025,34.05],[132.939,34.138],[132.918,34.065],[132.856,34.046],[132.771,33.999],[132.755,33.911],[132.71,33.907],[132.712,33.861],[132.687,33.834],[132.7,33.767],[132.659,33.704],[132.579,33.653],[132.508,33.63],[132.457,33.595],[132.424,33.549],[132.211,33.446],[132.172,33.444],[132.108,33.409],[132.123,33.366],[132.181,33.409],[132.281,33.447],[132.3,33.475],[132.387,33.46],[132.416,33.304],[132.461,33.31],[132.539,33.235],[132.47,33.123],[132.484,33.067],[132.458,33.046],[132.506,33.005],[132.512,32.95],[132.587,32.942],[132.599,32.913],[132.656,32.925],[132.687,32.976],[132.663,33.109],[132.726,33.168],[132.793,33.275],[132.899,33.315],[132.89,33.358],[132.825,33.423],[132.832,33.476],[132.96,33.466],[133.013,33.49],[133.064,33.543],[133.047,33.575],[133.075,33.651],[133.117,33.66],[133.158,33.75],[133.257,33.794],[133.268,33.824],[133.326,33.815],[133.356,33.834],[133.491,33.832],[133.55,33.882],[133.583,33.868],[133.661,33.882],[133.693,33.944],[133.68,34.013]]]},"properties":{"name":"愛媛県","code":"38"}},
{"type":"Feature","geometry":{"type":"Polygon","coordinates":[[[133.661,33.882],[133.583,33.868],[133.55,33.882],[133.491,33.832],[133.356,33.834],[133.326,33.815],[133.268,33.824],[133.257,33.794],[133.158,33.75],[133.117,33.66],[133.075,33.651],[133.047,33.575],[133.064,33.543],[133.013,33.49],[132.96,33.466],[132.832,33.476],[132.825,33.423],[132.89,33.358],[132.899,33.315],[132.793,33.275],[132.726,33.168],[132.663,33.109],[132.687,32.976],[132.656,32.925],[132.711,32.924],[132.714,32.882],[132.669,32.865],[132.629,32.8],[132.64,32.769],[132.722,32.793],[132.757,32.753],[132.816,32.753],[132.862,32.791],[132.935,32.787],[133.006,32.721],[133.017,32.761],[132.952,32.813],[132.951,32.86],[133.009,32.881],[132.993,32.952],[133.008,33.009],[133.035,33.036],[133.093,33.034],[133.105,33.071],[133.169,33.148],[133.222,33.174],[133.264,33.257],[133.239,33.299],[133.28,33.384],[133.395,33.401],[133.458,33.428],[133.467,33.454],[133.601,33.52],[133.722,33.538],[133.922,33.492],[133.958,33.442],[134.031,33.412],[134.034,33.378],[134.138,33.296],[134.187,33.292],[134.242,33.464],[134.306,33.548],[134.196,33.561],[134.15,33.631],[134.175,33.684],[134.126,33.696],[134.066,33.689],[134.059,33.777],[134.033,33.809],[133.951,33.829],[133.914,33.791],[133.818,33.837],[133.678,33.859],[133.661,33.882]]]},"properties":{"name":"高知県","code":"39"}},
{"type":"Feature","geometry":{"type":"Polygon","coordinates":[[[130.039,33.47],[130.204,33.482],[130.277,33.479],[130.429,33.397],[130.469,33.433],[130.536,33.439],[130.542,33.366],[130.466,33.285],[130.417,33.268],[130.376,33.22],[130.34,33.205],[130.356,33.14],[130.398,33.108],[130.425,33.053],[130.414,33.002],[130.516,33.012],[130.495,33.049],[130.566,33.087],[130.58,33.116],[130.66,33.115],[130.668,33.157],[130.732,33.154],[130.771,33.124],[130.84,33.104],[130.88,33.153],[130.836,33.211],[130.825,33.253],[130.866,33.292],[130.842,33.35],[130.886,33.379],[130.895,33.446],[130.972,33.505],[131.119,33.502],[131.163,33.508],[131.191,33.558],[131.186,33.617],[131.1,33.618],[131.039,33.692],[130.967,33.81],[130.993,33.851],[131.02,33.962],[130.963,33.962],[130.933,33.91],[130.895,33.892],[130.855,33.929],[130.738,33.927],[130.695,33.938],[130.63,33.883],[130.555,33.891],[130.488,33.851],[130.446,33.791],[130.458,33.736],[130.418,33.686],[130.396,33.61],[130.293,33.58],[130.252,33.597],[130.208,33.648],[130.154,33.621],[130.12,33.575],[130.154,33.537],[130.127,33.51],[130.049,33.495],[130.039,33.47]]]},"properties":{"name":"福岡県","code":"40"}},
{"type":"Feature","geometry":{"type":"Polygon","coordinates":[[[130.039,33.47],[130.019,33.446],[129.942,33.475],[129.969,33.511],[129.909,33.549],[129.856,33.533],[129.783,33.451],[129.867,33.404],[129.839,33.304],[129.791,33.34],[129.759,33.291],[129.815,33.239],[129.817,33.184],[129.879,33.162],[129.941,33.16],[129.939,33.074],[130.001,33.026],[130.087,32.975],[130.204,32.957],[130.194,32.995],[130.126,33.107],[130.222,33.165],[130.356,33.14],[130.34,33.205],[130.376,33.22],[130.417,33.268],[130.466,33.285],[130.542,33.366],[130.536,33.439],[130.469,33.433],[130.429,33.397],[130.277,33.479],[130.204,33.482],[130.039,33.47]]]},"properties":{"name":"佐賀県","code":"41"}},
{"type":"Feature","geometry":{"type":"MultiPolygon","coordinates":[[[[129.791,33.34],[129.744,33.367],[129.706,33.346],[129.654,33.371],[129.578,33.38],[129.568,33.321],[129.591,33.277],[129.562,33.239],[129.58,33.217],[129.72,33.139],[129.785,33.144],[129.795,33.084],[129.827,33.054],[129.877,33.064],[129.945,33.016],[129.93,32.926],[129.971,32.89],[129.958,32.847],[129.897,32.88],[129.844,32.843],[129.8,32.864],[129.819,32.974],[129.762,33.016],[129.73,33.076],[129.682,33.099],[129.627,32.979],[129.7,32.834],[129.746,32.82],[129.852,32.721],[129.826,32.696],[129.789,32.612],[129.896,32.663],[129.957,32.743],[130.041,32.767],[130.068,32.788],[130.179,32.795],[130.21,32.743],[130.199,32.718],[130.133,32.681],[130.13,32.641],[130.174,32.611],[130.218,32.605],[130.274,32.654],[130.348,32.674],[130.346,32.709],[130.377,32.74],[130.378,32.784],[130.341,32.855],[130.297,32.881],[130.244,32.876],[130.195,32.848],[130.153,32.899],[130.203,32.932],[130.204,32.957],[130.087,32.975],[130.001,33.026],[129.939,33.074],[129.941,33.16],[129.879,33.162],[129.817,33.184],[129.815,33.239],[129.759,33.291],[129.791,33.34]]],[[[128.598,32.613],[128.737,32.607],[128.772,32.574],[128.819,32.637],[128.897,32.654],[128.841,32.709],[128.83,32.755],[128.792,32.789],[128.736,32.746],[128.664,32.783],[128.641,32.762],[128.664,32.645],[128.598,32.613]]],[[[128.993,32.946],[129.042,32.909],[129.057,32.847],[129.1,32.86],[129.097,32.924],[129.182,32.971],[129.165,33.008],[129.091,32.989],[129.091,33.038],[129.042,33.022],[129.03,32.961],[128.993,32.946]]],[[[129.167,34.106],[129.217,34.095],[129.262,34.116],[129.297,34.173],[129.331,34.276],[129.302,34.31],[129.222,34.291],[129.185,34.247],[129.167,34.106]]],[[[129.229,34.364],[129.254,34.35],[129.296,34.376],[129.353,34.339],[129.376,34.386],[129.375,34.452],[129.468,34.55],[129.487,34.676],[129.449,34.703],[129.388,34.651],[129.32,34.647],[129.306,34.589],[129.325,34.552],[129.274,34.466],[129.288,34.449],[129.263,34.367],[129.229,34.364]]],[[[129.349,33.182],[129.375,33.169],[129.463,33.214],[129.561,33.356],[129.444,33.35],[129.41,33.25],[129.349,33.182]]],[[[129.643,33.767],[129.715,33.707],[129.738,33.738],[129.787,33.743],[129.753,33.848],[129.704,33.861],[129.643,33.767]]]]},"properties":{"name":"長崎県","code":"42"}},
{"type":"Feature","geometry":{"type":"MultiPolygon","coordinates":[[[[130.414,33.002],[130.44,32.921],[130.523,32.881],[130.523,32.853],[130.593,32.822],[130.607,32.713],[130.538,32.665],[130.453,32.627],[130.467,32.605],[130.652,32.643],[130.634,32.603],[130.531,32.52],[130.573,32.44],[130.486,32.36],[130.424,32.234],[130.394,32.227],[130.361,32.169],[130.403,32.12],[130.454,32.113],[130.505,32.141],[130.623,32.156],[130.721,32.101],[130.857,32.1],[130.906,32.134],[130.975,32.121],[131.004,32.17],[131.086,32.154],[131.101,32.173],[131.069,32.237],[131.043,32.248],[131.112,32.33],[131.078,32.355],[131.068,32.407],[131.017,32.448],[131.007,32.49],[131.018,32.546],[131.052,32.588],[131.12,32.599],[131.116,32.643],[131.19,32.722],[131.232,32.744],[131.257,32.818],[131.33,32.833],[131.257,32.887],[131.246,32.961],[131.216,33.051],[131.178,33.079],[131.167,33.129],[131.117,33.179],[131.04,33.194],[130.994,33.184],[130.979,33.142],[131.024,33.088],[130.991,33.024],[130.899,33.064],[130.84,33.104],[130.771,33.124],[130.732,33.154],[130.668,33.157],[130.66,33.115],[130.58,33.116],[130.566,33.087],[130.495,33.049],[130.516,33.012],[130.414,33.002]]],[[[129.967,32.244],[130.004,32.235],[130.013,32.19],[130.078,32.212],[130.117,32.272],[130.166,32.296],[130.222,32.367],[130.197,32.459],[130.191,32.543],[130.118,32.544],[130.065,32.516],[130.007,32.428],[129.975,32.356],[129.993,32.283],[129.967,32.244]]],[[[130.205,32.451],[130.221,32.416],[130.354,32.387],[130.4,32.398],[130.42,32.43],[130.443,32.529],[130.398,32.506],[130.316,32.518],[130.282,32.484],[130.205,32.451]]]]},"properties":{"name":"熊本県","code":"43"}},
{"type":"Feature","geometry":{"type":"Polygon","coordinates":[[[130.84,33.104],[130.899,33.064],[130.991,33.024],[131.024,33.088],[130.979,33.142],[130.994,33.184],[131.04,33.194],[131.117,33.179],[131.167,33.129],[131.178,33.079],[131.216,33.051],[131.246,32.961],[131.257,32.887],[131.33,32.833],[131.364,32.803],[131.475,32.837],[131.517,32.801],[131.512,32.77],[131.569,32.754],[131.59,32.774],[131.712,32.774],[131.736,32.831],[131.859,32.821],[131.847,32.736],[131.886,32.746],[131.936,32.784],[132.01,32.906],[132.01,32.933],[131.89,32.991],[131.919,33.026],[131.885,33.111],[131.809,33.138],[131.862,33.195],[131.904,33.263],[131.806,33.242],[131.747,33.248],[131.692,33.279],[131.589,33.246],[131.513,33.267],[131.499,33.36],[131.597,33.35],[131.644,33.375],[131.634,33.424],[131.701,33.406],[131.739,33.494],[131.734,33.581],[131.661,33.67],[131.582,33.692],[131.515,33.669],[131.424,33.592],[131.42,33.574],[131.273,33.584],[131.259,33.603],[131.186,33.617],[131.191,33.558],[131.163,33.508],[131.119,33.502],[130.972,33.505],[130.895,33.446],[130.886,33.379],[130.842,33.35],[130.866,33.292],[130.825,33.253],[130.836,33.211],[130.88,33.153],[130.84,33.104]]]},"properties":{"name":"大分県","code":"44"}},
{"type":"Feature","geometry":{"type":"Polygon","coordinates":[[[130.721,32.101],[130.704,32.058],[130.777,32.016],[130.816,31.941],[130.866,31.934],[130.898,31.889],[130.876,31.844],[130.885,31.805],[130.98,31.779],[131.016,31.748],[131.026,31.667],[131.079,31.66],[131.128,31.626],[131.188,31.625],[131.205,31.58],[131.197,31.512],[131.16,31.462],[131.242,31.427],[131.263,31.379],[131.334,31.398],[131.373,31.436],[131.363,31.472],[131.401,31.582],[131.462,31.634],[131.451,31.681],[131.483,31.786],[131.456,31.816],[131.472,31.946],[131.585,32.292],[131.645,32.408],[131.729,32.492],[131.682,32.54],[131.707,32.586],[131.742,32.592],[131.778,32.671],[131.886,32.746],[131.847,32.736],[131.859,32.821],[131.736,32.831],[131.712,32.774],[131.59,32.774],[131.569,32.754],[131.512,32.77],[131.517,32.801],[131.475,32.837],[131.364,32.803],[131.33,32.833],[131.257,32.818],[131.232,32.744],[131.19,32.722],[131.116,32.643],[131.12,32.599],[131.052,32.588],[131.018,32.546],[131.007,32.49],[131.017,32.448],[131.068,32.407],[131.078,32.355],[131.112,32.33],[131.043,32.248],[131.069,32.237],[131.101,32.173],[131.086,32.154],[131.004,32.17],[130.975,32.121],[130.906,32.134],[130.857,32.1],[130.721,32.101]]]},"properties":{"name":"宮崎県","code":"45"}},
{"type":"Feature","geometry":{"type":"MultiPolygon","coordinates":[[[[130.361,32.169],[130.352,32.136],[130.284,32.11],[130.227,32.129],[130.176,32.106],[130.202,32.037],[130.179,32.003],[130.21,31.97],[130.224,31.911],[130.166,31.795],[130.199,31.754],[130.26,31.722],[130.329,31.629],[130.334,31.563],[130.307,31.478],[130.272,31.427],[130.225,31.402],[130.152,31.385],[130.209,31.348],[130.226,31.306],[130.225,31.25],[130.282,31.266],[130.354,31.25],[130.475,31.245],[130.515,31.198],[130.586,31.161],[130.636,31.186],[130.667,31.267],[130.623,31.276],[130.565,31.323],[130.514,31.459],[130.563,31.597],[130.62,31.659],[130.614,31.697],[130.66,31.729],[130.793,31.703],[130.823,31.66],[130.767,31.564],[130.72,31.558],[130.693,31.625],[130.626,31.62],[130.592,31.581],[130.638,31.545],[130.704,31.548],[130.699,31.462],[130.755,31.426],[130.803,31.337],[130.788,31.249],[130.744,31.132],[130.658,31.074],[130.722,31.044],[130.813,31.089],[130.847,31.089],[130.963,31.138],[131.017,31.228],[131.065,31.227],[131.111,31.267],[131.074,31.292],[131.105,31.334],[131.015,31.361],[131.041,31.427],[131.111,31.473],[131.16,31.462],[131.197,31.512],[131.205,31.58],[131.188,31.625],[131.128,31.626],[131.079,31.66],[131.026,31.667],[131.016,31.748],[130.98,31.779],[130.885,31.805],[130.876,31.844],[130.898,31.889],[130.866,31.934],[130.816,31.941],[130.777,32.016],[130.704,32.058],[130.721,32.101],[130.623,32.156],[130.505,32.141],[130.454,32.113],[130.403,32.12],[130.361,32.169]]],[[[128.879,27.828],[128.9,27.736],[128.936,27.661],[128.987,27.67],[129.037,27.757],[128.971,27.816],[128.967,27.893],[128.89,27.882],[128.879,27.828]]],[[[129.135,28.255],[129.178,28.224],[129.242,28.217],[129.266,28.232],[129.296,28.151],[129.322,28.136],[129.405,28.158],[129.421,28.19],[129.472,28.221],[129.438,28.245],[129.491,28.291],[129.545,28.312],[129.63,28.407],[129.709,28.421],[129.705,28.477],[129.64,28.417],[129.595,28.475],[129.546,28.462],[129.444,28.383],[129.412,28.387],[129.367,28.355],[129.265,28.328],[129.179,28.269],[129.135,28.255]]],[[[130.377,30.375],[130.392,30.32],[130.437,30.24],[130.489,30.227],[130.576,30.237],[130.659,30.31],[130.672,30.372],[130.539,30.448],[130.469,30.461],[130.419,30.396],[130.377,30.375]]],[[[130.849,30.465],[130.873,30.345],[130.979,30.403],[130.959,30.458],[130.979,30.515],[131.035,30.566],[131.055,30.605],[131.05,30.647],[131.075,30.706],[131.083,30.783],[131.057,30.84],[131.003,30.785],[131.003,30.75],[130.942,30.673],[130.952,30.588],[130.898,30.495],[130.849,30.465]]]]},"properties":{"name":"鹿児島県","code":"46"}},
{"type":"Feature","geometry":{"type":"MultiPolygon","coordinates":[[[[123.662,24.308],[123.68,24.284],[123.833,24.272],[123.881,24.256],[123.939,24.366],[123.812,24.411],[123.782,24.437],[123.751,24.403],[123.754,24.353],[123.662,24.308]]],[[[124.069,24.431],[124.121,24.434],[124.144,24.411],[124.111,24.365],[124.165,24.331],[124.249,24.359],[124.252,24.467],[124.281,24.488],[124.341,24.587],[124.312,24.61],[124.275,24.505],[124.179,24.449],[124.14,24.471],[124.069,24.431]]],[[[125.253,24.757],[125.309,24.712],[125.406,24.73],[125.44,24.756],[125.336,24.798],[125.306,24.85],[125.278,24.838],[125.253,24.757]]],[[[127.63,26.206],[127.663,26.13],[127.657,26.084],[127.726,26.091],[127.747,26.118],[127.831,26.167],[127.77,26.207],[127.811,26.298],[127.863,26.344],[127.872,26.388],[127.83,26.419],[127.871,26.458],[127.943,26.442],[127.991,26.476],[127.992,26.504],[128.14,26.555],[128.131,26.601],[128.159,26.631],[128.235,26.631],[128.318,26.743],[128.316,26.821],[128.253,26.851],[128.224,26.789],[128.118,26.703],[128.08,26.645],[128.024,26.627],[127.983,26.649],[128,26.691],[127.959,26.707],[127.904,26.699],[127.88,26.636],[127.983,26.585],[127.976,26.559],[127.917,26.516],[127.867,26.51],[127.845,26.481],[127.717,26.402],[127.757,26.295],[127.707,26.273],[127.63,26.206]]]]},"properties":{"name":"沖縄県","code":"47"}}
]}